KUIPER-00125            
1 65954U 25228H   26024.50001156 -.01541374  00000+0 -13349+0 0  9995
2 65954  51.8949 176.9456 0002896 146.5630 167.0971 14.99869346  4920
KUIPER-00126            
1 65955U 25228J   26024.49700661  .00005047  00000+0  69077-3 0  9993
2 65955  51.8968 196.0259 0000537 111.9984 248.1035 14.79922170 16685
KUIPER-00127            
1 65956U 25228K   26024.49361437  .00008697  00000+0  74478-3 0  9993
2 65956  51.8947 189.2032 0005204 203.7744 156.2986 14.98245468 16780
KUIPER-00128            
1 65957U 25228L   26023.72859255  .00005016  00000+0  68642-3 0  9997
2 65957  51.8997 191.9346 0000720  76.4357 283.6685 14.79938254 16677
KUIPER-00129            
1 65958U 25228M   26024.50001156 -.00019907  00000+0 -25563-2 0  9994
2 65958  51.8994 183.5119 0000888 131.0596 171.1523 14.80478797  5693
KUIPER-00130            
1 65959U 25228N   26024.00002315 -.00006918  00000+0 -87854-3 0  9998
2 65959  51.9009 188.2170 0000779  57.0623 296.2210 14.79975235  5822
KUIPER-00134            
1 65960U 25228P   26023.80985837  .00053731  00000+0  14609-2 0  9996
2 65960  51.8762 177.5160 0007153 155.7649 204.3676 15.37000040 16888
KUIPER-00135            
1 65961U 25228Q   26024.50001156 -.00002794  00000+0 -33725-3 0  9994
2 65961  51.9007 186.0704 0000853 116.5316 201.7430 14.79979282  5084
